start=new Date('2023-05-28T00:00:00.000Z').valueOf();
sats=[{"MEAN_MOTION_DDOT":"0.0000000000000","DECAY_DATE":null,"BSTAR":"0.00011845000000","PERIAPSIS":"546.310","OBJECT_ID":"2021-040BK","COUNTRY_CODE":"US","TIME_SYSTEM":"UTC","GP_ID":"232632480","ARG_OF_PERICENTER":"111.2383","PERIOD":"95.592","OBJECT_TYPE":"PAYLOAD","CLASSIFICATION_TYPE":"U","EPHEMERIS_TYPE":"0","MEAN_ANOMALY":"248.8741","REV_AT_EPOCH":"11303","MEAN_MOTION_DOT":"0.00001484","LAUNCH_DATE":"2021-05-09","ELEMENT_SET_NO":"999","APOAPSIS":"548.065","RA_OF_ASC_NODE":"87.8244","INCLINATION":"53.0528","CENTER_NAME":"EARTH","ECCENTRICITY":"0.00012670","TLE_LINE1":"1 48485U 21040BK  23147.52991400  .00001484  00000-0  11845-3 0  9992","OBJECT_NAME":"STARLINK-2500","REF_FRAME":"TEME","FILE":"3918755","MEAN_MOTION":"15.06408520","RCS_SIZE":"LARGE","MEAN_ELEMENT_THEORY":"SGP4","NORAD_CAT_ID":"48485","EPOCH":"2023-05-27T12:43:04.569600","SEMIMAJOR_AXIS":"6925.322","TLE_LINE2":"2 48485  53.0528  87.8244 0001267 111.2383 248.8741 15.06408520113035","SITE":"AFETR"},{"EPHEMERIS_TYPE":"0","CLASSIFICATION_TYPE":"U","OBJECT_TYPE":"PAYLOAD","RA_OF_ASC_NODE":"89.5867","INCLINATION":"53.0534","LAUNCH_DATE":"2021-05-09","ELEMENT_SET_NO":"999","MEAN_MOTION_DOT":"0.00005403","APOAPSIS":"547.922","MEAN_ANOMALY":"267.3646","REV_AT_EPOCH":"11297","OBJECT_ID":"2021-040BL","PERIAPSIS":"546.384","BSTAR":"0.00038111000000","MEAN_MOTION_DDOT":"0.0000000000000","DECAY_DATE":null,"GP_ID":"232633731","ARG_OF_PERICENTER":"92.7470","PERIOD":"95.591","TIME_SYSTEM":"UTC","COUNTRY_CODE":"US","TLE_LINE2":"2 48486  53.0534  89.5867 0001110  92.7470 267.3646 15.06419708112972","NORAD_CAT_ID":"48486","SEMIMAJOR_AXIS":"6925.288","EPOCH":"2023-05-27T03:13:47.213472","MEAN_ELEMENT_THEORY":"SGP4","SITE":"AFETR","FILE":"3918755","MEAN_MOTION":"15.06419708","REF_FRAME":"TEME","OBJECT_NAME":"STARLINK-2496","CENTER_NAME":"EARTH","ECCENTRICITY":"0.00011100","TLE_LINE1":"1 48486U 21040BL  23147.13457423  .00005403  00000-0  38111-3 0  9992","RCS_SIZE":"LARGE"},{"REF_FRAME":"TEME","MEAN_MOTION":"15.06422840","FILE":"3918755","TLE_LINE1":"1 48487U 21040BM  23147.20555375  .00011709  00000-0  80315-3 0  9995","CENTER_NAME":"EARTH","ECCENTRICITY":"0.00011550","OBJECT_NAME":"STARLINK-2494","RCS_SIZE":"LARGE","EPOCH":"2023-05-27T04:55:59.844000","SEMIMAJOR_AXIS":"6925.279","NORAD_CAT_ID":"48487","TLE_LINE2":"2 48487  53.0548  89.2860 0001155 101.4806 258.6312 15.06422840112994","MEAN_ELEMENT_THEORY":"SGP4","SITE":"AFETR","PERIAPSIS":"546.344","OBJECT_ID":"2021-040BM","DECAY_DATE":null,"MEAN_MOTION_DDOT":"0.0000000000000","BSTAR":"0.00080315000000","ARG_OF_PERICENTER":"101.4806","PERIOD":"95.591","GP_ID":"232633482","COUNTRY_CODE":"US","TIME_SYSTEM":"UTC","CLASSIFICATION_TYPE":"U","EPHEMERIS_TYPE":"0","OBJECT_TYPE":"PAYLOAD","INCLINATION":"53.0548","RA_OF_ASC_NODE":"89.2860","REV_AT_EPOCH":"11299","MEAN_ANOMALY":"258.6312","APOAPSIS":"547.943","ELEMENT_SET_NO":"999","LAUNCH_DATE":"2021-05-09","MEAN_MOTION_DOT":"0.00011709"},{"MEAN_MOTION_DOT":"-0.00003334","LAUNCH_DATE":"2021-05-15","ELEMENT_SET_NO":"999","APOAPSIS":"548.036","MEAN_ANOMALY":"283.2218","REV_AT_EPOCH":"11195","RA_OF_ASC_NODE":"16.1142","INCLINATION":"53.0545","OBJECT_TYPE":"PAYLOAD","EPHEMERIS_TYPE":"0","CLASSIFICATION_TYPE":"U","TIME_SYSTEM":"UTC","COUNTRY_CODE":"US","GP_ID":"232633237","ARG_OF_PERICENTER":"76.8898","PERIOD":"95.593","BSTAR":"-0.00020510000000","MEAN_MOTION_DDOT":"0.0000000000000","DECAY_DATE":null,"OBJECT_ID":"2021-041A","PERIAPSIS":"546.470","SITE":"AFETR","MEAN_ELEMENT_THEORY":"SGP4","TLE_LINE2":"2 48553  53.0545  16.1142 0001131  76.8898 283.2218 15.06387106111956","NORAD_CAT_ID":"48553","EPOCH":"2023-05-27T21:53:46.890528","SEMIMAJOR_AXIS":"6925.388","RCS_SIZE":"LARGE","OBJECT_NAME":"STARLINK-2063","ECCENTRICITY":"0.00011310","CENTER_NAME":"EARTH","TLE_LINE1":"1 48553U 21041A   23147.91234827 -.00003334  00000-0 -20510-3 0  9992","MEAN_MOTION":"15.06387106","FILE":"3918755","REF_FRAME":"TEME"},{"OBJECT_TYPE":"PAYLOAD","CLASSIFICATION_TYPE":"U","EPHEMERIS_TYPE":"0","REV_AT_EPOCH":"11195","MEAN_ANOMALY":"266.9989","APOAPSIS":"547.857","MEAN_MOTION_DOT":"-0.00000239","LAUNCH_DATE":"2021-05-15","ELEMENT_SET_NO":"999","INCLINATION":"53.0555","RA_OF_ASC_NODE":"16.0752","DECAY_DATE":null,"MEAN_MOTION_DDOT":"0.0000000000000","BSTAR":"0.00000282470000","PERIAPSIS":"546.588","OBJECT_ID":"2021-041B","COUNTRY_CODE":"US","TIME_SYSTEM":"UTC","ARG_OF_PERICENTER":"93.1105","PERIOD":"95.592","GP_ID":"232633987","MEAN_ELEMENT_THEORY":"SGP4","EPOCH":"2023-05-27T22:04:23.547936","SEMIMAJOR_AXIS":"6925.357","NORAD_CAT_ID":"48554","TLE_LINE2":"2 48554  53.0555  16.0752 0000916  93.1105 266.9989 15.06397173111955","SITE":"AFETR","TLE_LINE1":"1 48554U 21041B   23147.91971699 -.00000239  00000-0  28247-5 0  9995","ECCENTRICITY":"0.00009160","CENTER_NAME":"EARTH","OBJECT_NAME":"STARLINK-2139","REF_FRAME":"TEME","MEAN_MOTION":"15.06397173","FILE":"3918755","RCS_SIZE":"LARGE"},{"SITE":"AFETR","MEAN_ELEMENT_THEORY":"SGP4","TLE_LINE2":"2 48555  53.0552  25.9469 0000870  91.4850 268.6238 15.06387977111816","SEMIMAJOR_AXIS":"6925.385","EPOCH":"2023-05-27T22:45:31.580352","NORAD_CAT_ID":"48555","RCS_SIZE":"LARGE","OBJECT_NAME":"STARLINK-2145","TLE_LINE1":"1 48555U 21041C   23147.94828218 -.00002568  00000-0 -15360-3 0  9995","CENTER_NAME":"EARTH","ECCENTRICITY":"0.00008700","FILE":"3918755","MEAN_MOTION":"15.06387977","REF_FRAME":"TEME","APOAPSIS":"547.853","ELEMENT_SET_NO":"999","LAUNCH_DATE":"2021-05-15","MEAN_MOTION_DOT":"-0.00002568","REV_AT_EPOCH":"11181","MEAN_ANOMALY":"268.6238","INCLINATION":"53.0552","RA_OF_ASC_NODE":"25.9469","OBJECT_TYPE":"PAYLOAD","EPHEMERIS_TYPE":"0","CLASSIFICATION_TYPE":"U","TIME_SYSTEM":"UTC","COUNTRY_CODE":"US","PERIOD":"95.593","ARG_OF_PERICENTER":"91.4850","GP_ID":"232632236","BSTAR":"-0.00015360000000","DECAY_DATE":null,"MEAN_MOTION_DDOT":"0.0000000000000","OBJECT_ID":"2021-041C","PERIAPSIS":"546.648"},{"TLE_LINE2":"2 48556  53.0549  25.9960 0001345  75.6964 284.4174 15.06386975111819","EPOCH":"2023-05-27T22:29:36.342816","SEMIMAJOR_AXIS":"6925.388","NORAD_CAT_ID":"48556","MEAN_ELEMENT_THEORY":"SGP4","SITE":"AFETR","MEAN_MOTION":"15.06386975","FILE":"3918755","REF_FRAME":"TEME","OBJECT_NAME":"STARLINK-2151","TLE_LINE1":"1 48556U 21041D   23147.93722619 -.00002414  00000-0 -14327-3 0  9995","CENTER_NAME":"EARTH","ECCENTRICITY":"0.00013450","RCS_SIZE":"LARGE","EPHEMERIS_TYPE":"0","CLASSIFICATION_TYPE":"U","OBJECT_TYPE":"PAYLOAD","RA_OF_ASC_NODE":"25.9960","INCLINATION":"53.0549","APOAPSIS":"548.185","ELEMENT_SET_NO":"999","LAUNCH_DATE":"2021-05-15","MEAN_MOTION_DOT":"-0.00002414","REV_AT_EPOCH":"11181","MEAN_ANOMALY":"284.4174","OBJECT_ID":"2021-041D","PERIAPSIS":"546.322","BSTAR":"-0.00014327000000","DECAY_DATE":null,"MEAN_MOTION_DDOT":"0.0000000000000","ARG_OF_PERICENTER":"75.6964","PERIOD":"95.593","GP_ID":"232632486","TIME_SYSTEM":"UTC","COUNTRY_CODE":"US"},{"SITE":"AFETR","TLE_LINE2":"2 48557  53.0548  15.9780 0001097 120.4777 239.6321 15.06391768111950","NORAD_CAT_ID":"48557","EPOCH":"2023-05-27T22:36:13.981536","SEMIMAJOR_AXIS":"6925.374","MEAN_ELEMENT_THEORY":"SGP4","RCS_SIZE":"LARGE","MEAN_MOTION":"15.06391768","FILE":"3918755","REF_FRAME":"TEME","OBJECT_NAME":"STARLINK-2155","CENTER_NAME":"EARTH","ECCENTRICITY":"0.00010970","TLE_LINE1":"1 48557U 21041E   23147.94182849  .00000931  00000-0  81371-4 0  9996","RA_OF_ASC_NODE":"15.9780","INCLINATION":"53.0548","LAUNCH_DATE":"2021-05-15","MEAN_MOTION_DOT":"0.00000931","ELEMENT_SET_NO":"999","APOAPSIS":"547.999","MEAN_ANOMALY":"239.6321","REV_AT_EPOCH":"11195","EPHEMERIS_TYPE":"0","CLASSIFICATION_TYPE":"U","OBJECT_TYPE":"PAYLOAD","GP_ID":"232633737","ARG_OF_PERICENTER":"120.4777","PERIOD":"95.593","TIME_SYSTEM":"UTC","COUNTRY_CODE":"US","OBJECT_ID":"2021-041E","PERIAPSIS":"546.479","BSTAR":"0.00008137100000","MEAN_MOTION_DDOT":"0.0000000000000","DECAY_DATE":null},{"MEAN_MOTION_DDOT":"0.0000000000000","DECAY_DATE":null,"BSTAR":"-0.00019322000000","PERIAPSIS":"546.612","OBJECT_ID":"2021-041F","COUNTRY_CODE":"US","TIME_SYSTEM":"UTC","GP_ID":"232633488","ARG_OF_PERICENTER":"75.1870","PERIOD":"95.593","OBJECT_TYPE":"PAYLOAD","CLASSIFICATION_TYPE":"U","EPHEMERIS_TYPE":"0","MEAN_ANOMALY":"284.9218","REV_AT_EPOCH":"11109","ELEMENT_SET_NO":"999","LAUNCH_DATE":"2021-05-15","MEAN_MOTION_DOT":"-0.00003157","APOAPSIS":"547.852","RA_OF_ASC_NODE":"15.9878","INCLINATION":"53.0550","CENTER_NAME":"EARTH","ECCENTRICITY":"0.00008950","TLE_LINE1":"1 48558U 21041F   23147.93814459 -.00003157  00000-0 -19322-3 0  9996","OBJECT_NAME":"STARLINK-2166","REF_FRAME":"TEME","MEAN_MOTION":"15.06393937","FILE":"3918755","RCS_SIZE":"LARGE","MEAN_ELEMENT_THEORY":"SGP4","NORAD_CAT_ID":"48558","EPOCH":"2023-05-27T22:30:55.692576","SEMIMAJOR_AXIS":"6925.367","TLE_LINE2":"2 48558  53.0550  15.9878 0000895  75.1870 284.9218 15.06393937111090","SITE":"AFETR"},{"FILE":"3918755","MEAN_MOTION":"15.06388121","REF_FRAME":"TEME","OBJECT_NAME":"STARLINK-2167","CENTER_NAME":"EARTH","ECCENTRICITY":"0.00015560","TLE_LINE1":"1 48559U 21041G   23147.90772605 -.00000913  00000-0 -42406-4 0  9997","RCS_SIZE":"LARGE","TLE_LINE2":"2 48559  53.0535  16.1280 0001556  88.9278 271.1889 15.06388121111948","NORAD_CAT_ID":"48559","SEMIMAJOR_AXIS":"6925.385","EPOCH":"2023-05-27T21:47:07.530720","MEAN_ELEMENT_THEORY":"SGP4","SITE":"AFETR","OBJECT_ID":"2021-041G","PERIAPSIS":"546.172","BSTAR":"-0.00004240600000","MEAN_MOTION_DDOT":"0.0000000000000","DECAY_DATE":null,"GP_ID":"232632736","PERIOD":"95.593","ARG_OF_PERICENTER":"88.9278","TIME_SYSTEM":"UTC","COUNTRY_CODE":"US","EPHEMERIS_TYPE":"0","CLASSIFICATION_TYPE":"U","OBJECT_TYPE":"PAYLOAD","RA_OF_ASC_NODE":"16.1280","INCLINATION":"53.0535","ELEMENT_SET_NO":"999","LAUNCH_DATE":"2021-05-15","MEAN_MOTION_DOT":"-0.00000913","APOAPSIS":"548.328","MEAN_ANOMALY":"271.1889","REV_AT_EPOCH":"11194"}];
